{"type": "FeatureCollection", "features": [ {"type": "Feature", "properties": {"norad_id": 38722, "name": "FENGYUN 1C DEB", "group": "fengyun-1c-debris", "lat": -38.52062022623493, "lon": -102.01486012113628, "alt_km": 763.8998454271186, "timestamp": "2025-12-13T03:42:11.562833+00:00", "meta": {"OBJECT_NAME": "FENGYUN 1C DEB", "OBJECT_ID": "1999-025ETP", "EPOCH": "2025-12-11T12:50:39.493248", "MEAN_MOTION": 14.58349213, "ECCENTRICITY": 0.01472173, "INCLINATION": 99.3522, "RA_OF_ASC_NODE": 83.7029, "ARG_OF_PERICENTER": 98.5109, "MEAN_ANOMALY": 263.2801, "EPHEMERIS_TYPE": 0, "CLASSIFICATION_TYPE": "U", "NORAD_CAT_ID": 38722, "ELEMENT_SET_NO": 999, "REV_AT_EPOCH": 70446, "BSTAR": 0.0050298284, "MEAN_MOTION_DOT": 0.0002709, "MEAN_MOTION_DDOT": 0}, "tle": {"line1": "1 38722U 99025ETP 25345.53517932  .00027090  00000+0  50298-2 0  9994", "line2": "2 38722  99.3522  83.7029 0147217  98.5109 263.2801 14.58349213704460"}}, "geometry": {"type": "Point", "coordinates": [-102.01486012113628, -38.52062022623493]}}, {"type": "Feature", "properties": {"norad_id": 38724, "name": "FENGYUN 1C DEB", "group": "fengyun-1c-debris", "lat": 75.6559088775479, "lon": -40.879180875114265, "alt_km": 745.1064927262896, "timestamp": "2025-12-13T03:42:11.562844+00:00", "meta": {"OBJECT_NAME": "FENGYUN 1C DEB", "OBJECT_ID": "1999-025ETR", "EPOCH": "2025-11-13T12:10:01.066656", "MEAN_MOTION": 14.14277973, "ECCENTRICITY": 0.012547, "INCLINATION": 98.7406, "RA_OF_ASC_NODE": 327.0705, "ARG_OF_PERICENTER": 154.7752, "MEAN_ANOMALY": 205.962, "EPHEMERIS_TYPE": 0, "CLASSIFICATION_TYPE": "U", "NORAD_CAT_ID": 38724, "ELEMENT_SET_NO": 999, "REV_AT_EPOCH": 56211, "BSTAR": 0.0084973, "MEAN_MOTION_DOT": 0.00017498, "MEAN_MOTION_DDOT": 0}, "tle": {"line1": "1 38724U 99025ETR 25317.50695679  .00017498  00000+0  84973-2 0  9995", "line2": "2 38724  98.7406 327.0705 0125470 154.7752 205.9620 14.14277973562118"}}, "geometry": {"type": "Point", "coordinates": [-40.879180875114265, 75.6559088775479]}}, {"type": "Feature", "properties": {"norad_id": 38725, "name": "FENGYUN 1C DEB", "group": "fengyun-1c-debris", "lat": 60.28405688374354, "lon": 96.51548260934936, "alt_km": 767.2267765627239, "timestamp": "2025-12-13T03:42:11.562854+00:00", "meta": {"OBJECT_NAME": "FENGYUN 1C DEB", "OBJECT_ID": "1999-025ETS", "EPOCH": "2025-12-10T13:50:08.556288", "MEAN_MOTION": 14.42766759, "ECCENTRICITY": 0.0034699, "INCLINATION": 98.871, "RA_OF_ASC_NODE": 109.715, "ARG_OF_PERICENTER": 263.0773, "MEAN_ANOMALY": 96.6468, "EPHEMERIS_TYPE": 0, "CLASSIFICATION_TYPE": "U", "NORAD_CAT_ID": 38725, "ELEMENT_SET_NO": 999, "REV_AT_EPOCH": 73321, "BSTAR": 0.0046037, "MEAN_MOTION_DOT": 0.0001544, "MEAN_MOTION_DDOT": 0}, "tle": {"line1": "1 38725U 99025ETS 25344.57648792  .00015440  00000+0  46037-2 0  9991", "line2": "2 38725  98.8710 109.7150 0034699 263.0773  96.6468 14.42766759733218"}}, "geometry": {"type": "Point", "coordinates": [96.51548260934936, 60.28405688374354]}}, {"type": "Feature", "properties": {"norad_id": 38726, "name": "FENGYUN 1C DEB", "group": "fengyun-1c-debris", "lat": 58.86985851664106, "lon": -153.25428782555937, "alt_km": 534.2706641966524, "timestamp": "2025-12-13T03:42:11.562864+00:00", "meta": {"OBJECT_NAME": "FENGYUN 1C DEB", "OBJECT_ID": "1999-025ETT", "EPOCH": "2025-12-11T08:02:13.814304", "MEAN_MOTION": 15.02811105, "ECCENTRICITY": 0.00235515, "INCLINATION": 99.1369, "RA_OF_ASC_NODE": 9.1467, "ARG_OF_PERICENTER": 129.1627, "MEAN_ANOMALY": 231.1691, "EPHEMERIS_TYPE": 0, "CLASSIFICATION_TYPE": "U", "NORAD_CAT_ID": 38726, "ELEMENT_SET_NO": 999, "REV_AT_EPOCH": 69834, "BSTAR": 0.013324693, "MEAN_MOTION_DOT": 0.00183926, "MEAN_MOTION_DDOT": 0}, "tle": {"line1": "1 38726U 99025ETT 25345.33488211  .00183926  00000+0  13325-1 0  9993", "line2": "2 38726  99.1369   9.1467 0023551 129.1627 231.1691 15.02811105698343"}}, "geometry": {"type": "Point", "coordinates": [-153.25428782555937, 58.86985851664106]}}, {"type": "Feature", "properties": {"norad_id": 38728, "name": "FENGYUN 1C DEB", "group": "fengyun-1c-debris", "lat": -12.66996297628572, "lon": -23.34698950134382, "alt_km": 641.5365689304799, "timestamp": "2025-12-13T03:42:11.562874+00:00", "meta": {"OBJECT_NAME": "FENGYUN 1C DEB", "OBJECT_ID": "1999-025ETV", "EPOCH": "2025-12-06T05:29:30.081696", "MEAN_MOTION": 14.70418681, "ECCENTRICITY": 0.0075523, "INCLINATION": 99.2588, "RA_OF_ASC_NODE": 326.6948, "ARG_OF_PERICENTER": 74.331, "MEAN_ANOMALY": 352.8104, "EPHEMERIS_TYPE": 0, "CLASSIFICATION_TYPE": "U", "NORAD_CAT_ID": 38728, "ELEMENT_SET_NO": 999, "REV_AT_EPOCH": 65515, "BSTAR": 0.0019460135, "MEAN_MOTION_DOT": 0.00012268, "MEAN_MOTION_DDOT": 0}, "tle": {"line1": "1 38728U 99025ETV 25340.22882039  .00012268  00000+0  19460-2 0  9991", "line2": "2 38728  99.2588 326.6948 0075523  74.3310 352.8104 14.70418681655154"}}, "geometry": {"type": "Point", "coordinates": [-23.34698950134382, -12.66996297628572]}}, {"type": "Feature", "properties": {"norad_id": 38789, "name": "FENGYUN 1C DEB", "group": "fengyun-1c-debris", "lat": -70.76035269486214, "lon": 26.715429521802708, "alt_km": 842.3828184880767, "timestamp": "2025-12-13T03:42:11.562884+00:00", "meta": {"OBJECT_NAME": "FENGYUN 1C DEB", "OBJECT_ID": "1999-025EUD", "EPOCH": "2025-12-09T22:24:51.255648", "MEAN_MOTION": 14.45777362, "ECCENTRICITY": 0.02079599, "INCLINATION": 98.8559, "RA_OF_ASC_NODE": 229.8858, "ARG_OF_PERICENTER": 33.6569, "MEAN_ANOMALY": 29.055, "EPHEMERIS_TYPE": 0, "CLASSIFICATION_TYPE": "U", "NORAD_CAT_ID": 38789, "ELEMENT_SET_NO": 999, "REV_AT_EPOCH": 61805, "BSTAR": 0.00090846035, "MEAN_MOTION_DOT": 4.156e-05, "MEAN_MOTION_DDOT": 0}, "tle": {"line1": "1 38789U 99025EUD 25343.93392657  .00004156  00000+0  90846-3 0  9996", "line2": "2 38789  98.8559 229.8858 0207959  33.6569  29.0550 14.45777362618054"}}, "geometry": {"type": "Point", "coordinates": [26.715429521802708, -70.76035269486214]}}, {"type": "Feature", "properties": {"norad_id": 38795, "name": "FENGYUN 1C DEB", "group": "fengyun-1c-debris", "lat": -26.367180305871095, "lon": -174.31325065155218, "alt_km": 890.4865411727887, "timestamp": "2025-12-13T03:42:11.562894+00:00", "meta": {"OBJECT_NAME": "FENGYUN 1C DEB", "OBJECT_ID": "1999-025EUK", "EPOCH": "2025-12-09T08:20:16.870272", "MEAN_MOTION": 13.29873446, "ECCENTRICITY": 0.05024228, "INCLINATION": 98.6999, "RA_OF_ASC_NODE": 6.8116, "ARG_OF_PERICENTER": 264.2547, "MEAN_ANOMALY": 90.1112, "EPHEMERIS_TYPE": 0, "CLASSIFICATION_TYPE": "U", "NORAD_CAT_ID": 38795, "ELEMENT_SET_NO": 999, "REV_AT_EPOCH": 78467, "BSTAR": 0.005100856, "MEAN_MOTION_DOT": 4.746e-05, "MEAN_MOTION_DDOT": 0}, "tle": {"line1": "1 38795U 99025EUK 25343.34741748  .00004746  00000+0  51009-2 0  9999", "line2": "2 38795  98.6999   6.8116 0502422 264.2547  90.1112 13.29873446784674"}}, "geometry": {"type": "Point", "coordinates": [-174.31325065155218, -26.367180305871095]}}, {"type": "Feature", "properties": {"norad_id": 38797, "name": "FENGYUN 1C DEB", "group": "fengyun-1c-debris", "lat": 69.15277557719699, "lon": -146.0431908251258, "alt_km": 1177.2272141307621, "timestamp": "2025-12-13T03:42:11.562904+00:00", "meta": {"OBJECT_NAME": "FENGYUN 1C DEB", "OBJECT_ID": "1999-025EUM", "EPOCH": "2025-12-11T10:46:32.675520", "MEAN_MOTION": 13.61609837, "ECCENTRICITY": 0.02449104, "INCLINATION": 99.4842, "RA_OF_ASC_NODE": 238.3367, "ARG_OF_PERICENTER": 224.6313, "MEAN_ANOMALY": 133.4881, "EPHEMERIS_TYPE": 0, "CLASSIFICATION_TYPE": "U", "NORAD_CAT_ID": 38797, "ELEMENT_SET_NO": 999, "REV_AT_EPOCH": 59265, "BSTAR": 0.00041911499, "MEAN_MOTION_DOT": 3.48e-06, "MEAN_MOTION_DDOT": 0}, "tle": {"line1": "1 38797U 99025EUM 25345.44898930  .00000348  00000+0  41911-3 0  9996", "line2": "2 38797  99.4842 238.3367 0244910 224.6313 133.4881 13.61609837592654"}}, "geometry": {"type": "Point", "coordinates": [-146.0431908251258, 69.15277557719699]}}, {"type": "Feature", "properties": {"norad_id": 38799, "name": "FENGYUN 1C DEB", "group": "fengyun-1c-debris", "lat": -30.30393963059069, "lon": -122.34928192839934, "alt_km": 822.3709965690077, "timestamp": "2025-12-13T03:42:11.562914+00:00", "meta": {"OBJECT_NAME": "FENGYUN 1C DEB", "OBJECT_ID": "1999-025EUP", "EPOCH": "2025-12-07T22:24:30.590496", "MEAN_MOTION": 14.4868874, "ECCENTRICITY": 0.01640713, "INCLINATION": 98.4063, "RA_OF_ASC_NODE": 57.4094, "ARG_OF_PERICENTER": 5.0879, "MEAN_ANOMALY": 355.1934, "EPHEMERIS_TYPE": 0, "CLASSIFICATION_TYPE": "U", "NORAD_CAT_ID": 38799, "ELEMENT_SET_NO": 999, "REV_AT_EPOCH": 63969, "BSTAR": 0.00109493, "MEAN_MOTION_DOT": 4.844e-05, "MEAN_MOTION_DDOT": 0}, "tle": {"line1": "1 38799U 99025EUP 25341.93368739  .00004844  00000+0  10949-2 0  9998", "line2": "2 38799  98.4063  57.4094 0164071   5.0879 355.1934 14.48688740639698"}}, "geometry": {"type": "Point", "coordinates": [-122.34928192839934, -30.30393963059069]}}, {"type": "Feature", "properties": {"norad_id": 38801, "name": "FENGYUN 1C DEB", "group": "fengyun-1c-debris", "lat": 79.66569535695656, "lon": -88.36466945067363, "alt_km": 859.3477392029554, "timestamp": "2025-12-13T03:42:11.562924+00:00", "meta": {"OBJECT_NAME": "FENGYUN 1C DEB", "OBJECT_ID": "1999-025EUR", "EPOCH": "2025-12-11T09:24:59.306112", "MEAN_MOTION": 14.24803528, "ECCENTRICITY": 0.03470862, "INCLINATION": 98.3738, "RA_OF_ASC_NODE": 36.0731, "ARG_OF_PERICENTER": 355.9512, "MEAN_ANOMALY": 63.8373, "EPHEMERIS_TYPE": 0, "CLASSIFICATION_TYPE": "U", "NORAD_CAT_ID": 38801, "ELEMENT_SET_NO": 999, "REV_AT_EPOCH": 64341, "BSTAR": 0.00086901064, "MEAN_MOTION_DOT": 3.76e-05, "MEAN_MOTION_DDOT": 0}, "tle": {"line1": "1 38801U 99025EUR 25345.39235308  .00003760  00000+0  86901-3 0  9999", "line2": "2 38801  98.3738  36.0731 0347086 355.9512  63.8373 14.24803528643413"}}, "geometry": {"type": "Point", "coordinates": [-88.36466945067363, 79.66569535695656]}}]}